*******************************************************************************
 Revised: April 12, 2021                 Earth                              399
 
 GEOPHYSICAL PROPERTIES (revised May 9, 2022):
  Vol. Mean Radius (km)    = 6371.01+-0.02   Mass x10^24 (kg)= 5.97219+-0.0006
  Equ. radius, km          = 6378.137        Mass layers:
  Polar axis, km           = 6356.752          Atmos         = 5.1   x 10^18 kg
  Flattening               = 1/298.257223563   oceans        = 1.4   x 10^21 kg
  Density, g/cm^3          = 5.51              crust         = 2.6   x 10^22 kg
  J2 (IERS 2010)           = 0.00108262545     mantle        = 4.043 x 10^24 kg
  g_p, m/s^2  (polar)      = 9.8321863685      outer core    = 1.835 x 10^24 kg
  g_e, m/s^2  (equatorial) = 9.7803267715      inner core    = 9.675 x 10^22 kg
  g_o, m/s^2               = 9.82022         Fluid core rad  = 3480 km
  GM, km^3/s^2             = 398600.435436   Inner core rad  = 1215 km
  GM 1-sigma, km^3/s^2     =      0.0014     Escape velocity = 11.186 km/s
  Rot. Rate (rad/s)        = 0.00007292115   Surface area:
  Mean sidereal day, hr    = 23.9344695944     land          = 1.48 x 10^8 km
  Mean solar day 2000.0, s = 86400.002         sea           = 3.62 x 10^8 km
  Mean solar day 1820.0, s = 86400.0         Love no., k2    = 0.299
  Moment of inertia        = 0.3308          Atm. pressure   = 1.0 bar
  Mean surface temp (Ts), K= 287.6           Volume, km^3    = 1.08321 x 10^12
  Mean effect. temp (Te), K= 255             Magnetic moment = 0.61 gauss Rp^3
  Geometric albedo         = 0.367           Vis. mag. V(1,0)= -3.86
  Solar Constant (W/m^2)   = 1367.6 (mean), 1414 (perihelion), 1322 (aphelion)
 HELIOCENTRIC ORBIT CHARACTERISTICS:
  Obliquity to orbit, deg  = 23.4392911  Sidereal orb period  = 1.0000174 y
  Orbital speed, km/s      = 29.79       Sidereal orb period  = 365.25636 d
  Mean daily motion, deg/d = 0.9856474   Hill's sphere radius = 234.9       
*******************************************************************************


*******************************************************************************
Ephemeris / WWW_USER Wed Feb 22 11:19:21 2023 Pasadena, USA      / Horizons
*******************************************************************************
Target body name: Earth (399)                     {source: DE441}
Center body name: Solar System Barycenter (0)     {source: DE441}
Center-site name: BODY CENTER
*******************************************************************************
Start time      : A.D. 1920-Nov-16 12:00:00.0000 TDB
Stop  time      : A.D. 2020-Nov-16 12:00:00.0000 TDB
Step-size       : 1 calendar months
*******************************************************************************
Center geodetic : 0.0, 0.0, 0.0                   {E-lon(deg),Lat(deg),Alt(km)}
Center cylindric: 0.0, 0.0, 0.0                   {E-lon(deg),Dxy(km),Dz(km)}
Center radii    : (undefined)
Output units    : KM-S
Calendar mode   : Mixed Julian/Gregorian
Output type     : GEOMETRIC cartesian states
Output format   : 1 (position only)
Reference frame : Ecliptic of J2000.0
*******************************************************************************
            JDTDB,            Calendar Date (TDB),                      X,                      Y,                      Z,
**************************************************************************************************************************
$$SOE
2425871.000000000, A.D. 1929-Sep-16 12:00:00.0000,  1.493314515655029E+08, -1.577064456102923E+07,  1.401873191509396E+03,
2425901.000000000, A.D. 1929-Oct-16 12:00:00.0000,  1.363740054232632E+08,  5.938484701307201E+07,  1.255068056204915E+04,
2425932.000000000, A.D. 1929-Nov-16 12:00:00.0000,  8.539614013406086E+07,  1.202424439517072E+08,  2.064828329084069E+04,
2425962.000000000, A.D. 1929-Dec-16 12:00:00.0000,  1.253610725413270E+07,  1.462633152967595E+08,  2.303580413404852E+04,
2425993.000000000, A.D. 1930-Jan-16 12:00:00.0000, -6.610820825172639E+07,  1.311408670163267E+08,  1.895861523324251E+04,
2426024.000000000, A.D. 1930-Feb-16 12:00:00.0000, -1.255767297527298E+08,  7.773203014711094E+07,  9.449057180911303E+03,
2426052.000000000, A.D. 1930-Mar-16 12:00:00.0000, -1.485900404233136E+08,  9.548391790389210E+06, -1.951196468119975E+03,
2426083.000000000, A.D. 1930-Apr-16 12:00:00.0000, -1.341483893184916E+08, -6.800686425463156E+07, -1.403101988897845E+04,
2426113.000000000, A.D. 1930-May-16 12:00:00.0000, -8.492792953988704E+07, -1.256439726040854E+08, -2.263714761321247E+04,
2426144.000000000, A.D. 1930-Jun-16 12:00:00.0000, -1.172226432758730E+07, -1.519639762856322E+08, -2.615696143050492E+04,
2426174.000000000, A.D. 1930-Jul-16 12:00:00.0000,  6.232491450802807E+07, -1.391343214221594E+08, -2.368153330270946E+04,
2426205.000000000, A.D. 1930-Aug-16 12:00:00.0000,  1.223662378472691E+08, -8.977532522722870E+07, -1.587674589749053E+04,
2426236.000000000, A.D. 1930-Sep-16 12:00:00.0000,  1.495906575880661E+08, -1.651838806011494E+07, -4.732855663083494E+03,
2426266.000000000, A.D. 1930-Oct-16 12:00:00.0000,  1.369733682936884E+08,  5.870752542882620E+07,  6.378388866648078E+03,
2426297.000000000, A.D. 1930-Nov-16 12:00:00.0000,  8.627383667145270E+07,  1.198101394290160E+08,  1.490830191048980E+04,
2426327.000000000, A.D. 1930-Dec-16 12:00:00.0000,  1.353220968664393E+07,  1.461747909867490E+08,  1.765769528678805E+04,
2426358.000000000, A.D. 1931-Jan-16 12:00:00.0000, -6.518714083622146E+07,  1.314202699698527E+08,  1.391200157533586E+04,
2426389.000000000, A.D. 1931-Feb-16 12:00:00.0000, -1.249027964521823E+08,  7.828370619327359E+07,  4.239604334972799E+03,
2426417.000000000, A.D. 1931-Mar-16 12:00:00.0000, -1.482209190628741E+08,  1.020886517839328E+07, -7.159782868174836E+03,
2426448.000000000, A.D. 1931-Apr-16 12:00:00.0000, -1.341174325342923E+08, -6.740612787541220E+07, -1.977847973586246E+04,
2426478.000000000, A.D. 1931-May-16 12:00:00.0000, -8.514272895574138E+07, -1.252461723189165E+08, -2.871864989235997E+04,
2426509.000000000, A.D. 1931-Jun-16 12:00:00.0000, -1.204683157234936E+07, -1.518646138008766E+08, -3.239466713795066E+04,
2426539.000000000, A.D. 1931-Jul-16 12:00:00.0000,  6.205210439772782E+07, -1.393348406854097E+08, -2.970654705002904E+04,
2426570.000000000, A.D. 1931-Aug-16 12:00:00.0000,  1.222977256911621E+08, -9.021608193214017E+07, -2.129566612257436E+04,
2426601.000000000, A.D. 1931-Sep-16 12:00:00.0000,  1.498279823265449E+08, -1.706427284308621E+07, -9.590774361560121E+03,
2426631.000000000, A.D. 1931-Oct-16 12:00:00.0000,  1.375318178716961E+08,  5.822461006808458E+07,  1.637129585061222E+03,
2426662.000000000, A.D. 1931-Nov-16 12:00:00.0000,  8.709608821121059E+07,  1.195579846160763E+08,  9.907921734742820E+03,
2426692.000000000, A.D. 1931-Dec-16 12:00:00.0000,  1.446855108883487E+07,  1.462567711246764E+08,  1.238245111553371E+04,
2426723.000000000, A.D. 1932-Jan-16 12:00:00.0000, -6.432058170435341E+07,  1.318652207925614E+08,  8.293269037157297E+03,
2426754.000000000, A.D. 1932-Feb-16 12:00:00.0000, -1.242791958044838E+08,  7.900736680525702E+07, -1.300216501858085E+03,
2426783.000000000, A.D. 1932-Mar-16 12:00:00.0000, -1.481235809213035E+08,  8.467512163664754E+06, -1.286460856297798E+04,
2426814.000000000, A.D. 1932-Apr-16 12:00:00.0000, -1.330390675147412E+08, -6.892771822202355E+07, -2.469151098462567E+04,
2426844.000000000, A.D. 1932-May-16 12:00:00.0000, -8.335643010159586E+07, -1.261157516085840E+08, -3.279976566825807E+04,
2426875.000000000, A.D. 1932-Jun-16 12:00:00.0000, -9.957885253040697E+06, -1.517934288120742E+08, -3.563983575604111E+04,
2426905.000000000, A.D. 1932-Jul-16 12:00:00.0000,  6.395897677094162E+07, -1.383250261053309E+08, -3.267426712724566E+04,
2426936.000000000, A.D. 1932-Aug-16 12:00:00.0000,  1.235704593129187E+08, -8.844287139601408E+07, -2.460953483340889E+04,
2426967.000000000, A.D. 1932-Sep-16 12:00:00.0000,  1.501664779628949E+08, -1.493144622986993E+07, -1.349043461665884E+04,
2426997.000000000, A.D. 1932-Oct-16 12:00:00.0000,  1.368983164773805E+08,  6.021809200913244E+07, -2.476189707256854E+03,
2427028.000000000, A.D. 1932-Nov-16 12:00:00.0000,  8.565880722271235E+07,  1.209177836265418E+08,  5.978700563810766E+03,
2427058.000000000, A.D. 1932-Dec-16 12:00:00.0000,  1.267257337182272E+07,  1.466848305648742E+08,  9.008089493773878E+03,
2427089.000000000, A.D. 1933-Jan-16 12:00:00.0000, -6.593405226406410E+07,  1.312817060926616E+08,  5.875247485183179E+03,
2427120.000000000, A.D. 1933-Feb-16 12:00:00.0000, -1.252104503608333E+08,  7.766754839780395E+07, -2.883120450332761E+03,
2427148.000000000, A.D. 1933-Mar-16 12:00:00.0000, -1.479704688819056E+08,  9.424555258508135E+06, -1.361557989140134E+04,
2427179.000000000, A.D. 1933-Apr-16 12:00:00.0000, -1.332479796497508E+08, -6.803651141021577E+07, -2.532768421670422E+04,
2427209.000000000, A.D. 1933-May-16 12:00:00.0000, -8.383166346706618E+07, -1.254447566072522E+08, -3.363236773584783E+04,
2427240.000000000, A.D. 1933-Jun-16 12:00:00.0000, -1.055748916196687E+07, -1.514471556762143E+08, -3.690967800251395E+04,
2427270.000000000, A.D. 1933-Jul-16 12:00:00.0000,  6.340765192863747E+07, -1.383020835832210E+08, -3.399559415020794E+04,
2427301.000000000, A.D. 1933-Aug-16 12:00:00.0000,  1.232274595423610E+08, -8.868006397872432E+07, -2.550139970051497E+04,
2427332.000000000, A.D. 1933-Sep-16 12:00:00.0000,  1.501348001331781E+08, -1.528304388630072E+07, -1.356580831677839E+04,
2427362.000000000, A.D. 1933-Oct-16 12:00:00.0000,  1.371860480014806E+08,  5.992656755795959E+07, -1.883252613212913E+03,
2427393.000000000, A.D. 1933-Nov-16 12:00:00.0000,  8.620118093862867E+07,  1.208575003444419E+08,  7.133157316185534E+03,
2427423.000000000, A.D. 1933-Dec-16 12:00:00.0000,  1.331426195858826E+07,  1.469524622443093E+08,  1.033818336228281E+04,
2427454.000000000, A.D. 1934-Jan-16 12:00:00.0000, -6.538086718560909E+07,  1.318994743279525E+08,  6.993769130364060E+03,
